{
  "type": "FeatureCollection",
  "features": [
    {
      "type": "Feature",
      "properties": {
        "norad_id": 34554,
        "name": "COSMOS 2251 DEB",
        "group": "cosmos-2251-debris",
        "lat": -25.2437073142267,
        "lon": 127.51636565591713,
        "alt_km": 785.5369985863053,
        "timestamp": "2025-12-12T07:43:20.910330+00:00",
        "meta_object_name": "COSMOS 2251 DEB",
        "meta_object_id": "1993-036UQ",
        "meta_epoch": "2025-12-11T20:53:13.393824",
        "meta_mean_motion": 14.37935968,
        "meta_eccentricity": 0.00229503,
        "meta_inclination": 74.0386,
        "meta_ra_of_asc_node": 300.592,
        "meta_arg_of_pericenter": 3.1494,
        "meta_mean_anomaly": 27.0274,
        "meta_ephemeris_type": 0,
        "meta_classification_type": "U",
        "meta_norad_cat_id": 34554,
        "meta_element_set_no": 999,
        "meta_rev_at_epoch": 87743,
        "meta_bstar": 0.00056324821,
        "meta_mean_motion_dot": 1.681e-05,
        "meta_mean_motion_ddot": 0,
        "tle_line1": "1 34554U 93036UQ  25345.87029391  .00001681  00000+0  56325-3 0  9999",
        "tle_line2": "2 34554  74.0386 300.5920 0022950   3.1494  27.0274 14.37935968877435"
      },
      "geometry": {
        "type": "Point",
        "coordinates": [
          127.51636565591713,
          -25.2437073142267
        ]
      }
    },
    {
      "type": "Feature",
      "properties": {
        "norad_id": 34556,
        "name": "COSMOS 2251 DEB",
        "group": "cosmos-2251-debris",
        "lat": -52.041543759931116,
        "lon": 104.12044965363388,
        "alt_km": 645.6525045840599,
        "timestamp": "2025-12-12T07:43:20.910341+00:00",
        "meta_object_name": "COSMOS 2251 DEB",
        "meta_object_id": "1993-036US",
        "meta_epoch": "2025-12-11T15:46:46.515648",
        "meta_mean_motion": 14.77747642,
        "meta_eccentricity": 0.00078788,
        "meta_inclination": 74.0159,
        "meta_ra_of_asc_node": 126.9824,
        "meta_arg_of_pericenter": 187.1045,
        "meta_mean_anomaly": 185.2844,
        "meta_ephemeris_type": 0,
        "meta_classification_type": "U",
        "meta_norad_cat_id": 34556,
        "meta_element_set_no": 999,
        "meta_rev_at_epoch": 88313,
        "meta_bstar": 0.0034463135,
        "meta_mean_motion_dot": 0.00024795,
        "meta_mean_motion_ddot": 0,
        "tle_line1": "1 34556U 93036US  25345.65748282  .00024795  00000+0  34463-2 0  9993",
        "tle_line2": "2 34556  74.0159 126.9824 0007878 187.1045 185.2844 14.77747642883133"
      },
      "geometry": {
        "type": "Point",
        "coordinates": [
          104.12044965363388,
          -52.041543759931116
        ]
      }
    },
    {
      "type": "Feature",
      "properties": {
        "norad_id": 34560,
        "name": "COSMOS 2251 DEB",
        "group": "cosmos-2251-debris",
        "lat": -25.801914491598954,
        "lon": -29.088091103043972,
        "alt_km": 649.7736016547824,
        "timestamp": "2025-12-12T07:43:20.910351+00:00",
        "meta_object_name": "COSMOS 2251 DEB",
        "meta_object_id": "1993-036UW",
        "meta_epoch": "2025-12-11T19:56:42.891936",
        "meta_mean_motion": 14.72099094,
        "meta_eccentricity": 0.00146847,
        "meta_inclination": 74.0167,
        "meta_ra_of_asc_node": 143.9021,
        "meta_arg_of_pericenter": 225.3472,
        "meta_mean_anomaly": 261.9903,
        "meta_ephemeris_type": 0,
        "meta_classification_type": "U",
        "meta_norad_cat_id": 34560,
        "meta_element_set_no": 999,
        "meta_rev_at_epoch": 88238,
        "meta_bstar": 0.0034589559,
        "meta_mean_motion_dot": 0.0002184,
        "meta_mean_motion_ddot": 0,
        "tle_line1": "1 34560U 93036UW  25345.83105199  .00021840  00000+0  34590-2 0  9991",
        "tle_line2": "2 34560  74.0167 143.9021 0014684 225.3472 261.9903 14.72099094882387"
      },
      "geometry": {
        "type": "Point",
        "coordinates": [
          -29.088091103043972,
          -25.801914491598954
        ]
      }
    },
    {
      "type": "Feature",
      "properties": {
        "norad_id": 34563,
        "name": "COSMOS 2251 DEB",
        "group": "cosmos-2251-debris",
        "lat": 10.078824065085767,
        "lon": -152.59478919110825,
        "alt_km": 735.3015375857722,
        "timestamp": "2025-12-12T07:43:20.910362+00:00",
        "meta_object_name": "COSMOS 2251 DEB",
        "meta_object_id": "1993-036UZ",
        "meta_epoch": "2025-12-11T09:17:04.026624",
        "meta_mean_motion": 14.46504175,
        "meta_eccentricity": 0.00138862,
        "meta_inclination": 74.0376,
        "meta_ra_of_asc_node": 206.2339,
        "meta_arg_of_pericenter": 300.1234,
        "meta_mean_anomaly": 243.7896,
        "meta_ephemeris_type": 0,
        "meta_classification_type": "U",
        "meta_norad_cat_id": 34563,
        "meta_element_set_no": 999,
        "meta_rev_at_epoch": 88177,
        "meta_bstar": 0.00073390299,
        "meta_mean_motion_dot": 2.619e-05,
        "meta_mean_motion_ddot": 0,
        "tle_line1": "1 34563U 93036UZ  25345.38685216  .00002619  00000+0  73390-3 0  9992",
        "tle_line2": "2 34563  74.0376 206.2339 0013886 300.1234 243.7896 14.46504175881771"
      },
      "geometry": {
        "type": "Point",
        "coordinates": [
          -152.59478919110825,
          10.078824065085767
        ]
      }
    },
    {
      "type": "Feature",
      "properties": {
        "norad_id": 34564,
        "name": "COSMOS 2251 DEB",
        "group": "cosmos-2251-debris",
        "lat": 20.941113095685516,
        "lon": 52.49464740677343,
        "alt_km": 769.2775898658474,
        "timestamp": "2025-12-12T07:43:20.910372+00:00",
        "meta_object_name": "COSMOS 2251 DEB",
        "meta_object_id": "1993-036VA",
        "meta_epoch": "2025-12-11T21:34:16.547232",
        "meta_mean_motion": 14.40687788,
        "meta_eccentricity": 0.0018989,
        "meta_inclination": 74.0325,
        "meta_ra_of_asc_node": 239.5674,
        "meta_arg_of_pericenter": 343.6142,
        "meta_mean_anomaly": 141.6161,
        "meta_ephemeris_type": 0,
        "meta_classification_type": "U",
        "meta_norad_cat_id": 34564,
        "meta_element_set_no": 999,
        "meta_rev_at_epoch": 87994,
        "meta_bstar": 0.00038854487,
        "meta_mean_motion_dot": 1.217e-05,
        "meta_mean_motion_ddot": 0,
        "tle_line1": "1 34564U 93036VA  25345.89880263  .00001217  00000+0  38854-3 0  9997",
        "tle_line2": "2 34564  74.0325 239.5674 0018989 343.6142 141.6161 14.40687788879949"
      },
      "geometry": {
        "type": "Point",
        "coordinates": [
          52.49464740677343,
          20.941113095685516
        ]
      }
    },
    {
      "type": "Feature",
      "properties": {
        "norad_id": 34567,
        "name": "COSMOS 2251 DEB",
        "group": "cosmos-2251-debris",
        "lat": -46.68273767222616,
        "lon": -4.799674466919841,
        "alt_km": 764.733225278509,
        "timestamp": "2025-12-12T07:43:20.910382+00:00",
        "meta_object_name": "COSMOS 2251 DEB",
        "meta_object_id": "1993-036VD",
        "meta_epoch": "2025-12-11T22:48:25.333344",
        "meta_mean_motion": 14.24015105,
        "meta_eccentricity": 0.00744763,
        "meta_inclination": 74.0399,
        "meta_ra_of_asc_node": 158.2009,
        "meta_arg_of_pericenter": 232.644,
        "meta_mean_anomaly": 252.8964,
        "meta_ephemeris_type": 0,
        "meta_classification_type": "U",
        "meta_norad_cat_id": 34567,
        "meta_element_set_no": 999,
        "meta_rev_at_epoch": 87113,
        "meta_bstar": 0.00033898928,
        "meta_mean_motion_dot": 7.75e-06,
        "meta_mean_motion_ddot": 0,
        "tle_line1": "1 34567U 93036VD  25345.95029321  .00000775  00000+0  33899-3 0  9999",
        "tle_line2": "2 34567  74.0399 158.2009 0074476 232.6440 252.8964 14.24015105871132"
      },
      "geometry": {
        "type": "Point",
        "coordinates": [
          -4.799674466919841,
          -46.68273767222616
        ]
      }
    },
    {
      "type": "Feature",
      "properties": {
        "norad_id": 34569,
        "name": "COSMOS 2251 DEB",
        "group": "cosmos-2251-debris",
        "lat": 32.89712337357807,
        "lon": -150.40442185097407,
        "alt_km": 694.7613047263394,
        "timestamp": "2025-12-12T07:43:20.910393+00:00",
        "meta_object_name": "COSMOS 2251 DEB",
        "meta_object_id": "1993-036VF",
        "meta_epoch": "2025-12-11T14:51:14.626656",
        "meta_mean_motion": 14.24748288,
        "meta_eccentricity": 0.01572567,
        "meta_inclination": 73.9903,
        "meta_ra_of_asc_node": 200.1629,
        "meta_arg_of_pericenter": 28.8066,
        "meta_mean_anomaly": 1.9109,
        "meta_ephemeris_type": 0,
        "meta_classification_type": "U",
        "meta_norad_cat_id": 34569,
        "meta_element_set_no": 999,
        "meta_rev_at_epoch": 86952,
        "meta_bstar": 0.00071468017,
        "meta_mean_motion_dot": 1.868e-05,
        "meta_mean_motion_ddot": 0,
        "tle_line1": "1 34569U 93036VF  25345.61891929  .00001868  00000+0  71468-3 0  9993",
        "tle_line2": "2 34569  73.9903 200.1629 0157256  28.8066   1.9109 14.24748288869524"
      },
      "geometry": {
        "type": "Point",
        "coordinates": [
          -150.40442185097407,
          32.89712337357807
        ]
      }
    }
  ]
}